[{"OBJECT_NAME":"COSMOS 2391","OBJECT_ID":"2002-036B","EPOCH":"2026-03-09T23:16:17.370336","MEAN_MOTION":12.44942936,"ECCENTRICITY":0.00273399,"INCLINATION":82.4823,"RA_OF_ASC_NODE":43.5591,"ARG_OF_PERICENTER":108.4207,"MEAN_ANOMALY":251.985,"EPHEMERIS_TYPE":0,"CLASSIFICATION_TYPE":"U","NORAD_CAT_ID":27465,"ELEMENT_SET_NO":999,"REV_AT_EPOCH":7550,"BSTAR":-7.1668495e-5,"MEAN_MOTION_DOT":0,"MEAN_MOTION_DDOT":0},{"OBJECT_NAME":"COSMOS 621","OBJECT_ID":"1973-104E","EPOCH":"2026-03-09T21:25:56.178048","MEAN_MOTION":12.54675574,"ECCENTRICITY":0.00502871,"INCLINATION":74.0264,"RA_OF_ASC_NODE":239.2334,"ARG_OF_PERICENTER":354.9842,"MEAN_ANOMALY":120.0685,"EPHEMERIS_TYPE":0,"CLASSIFICATION_TYPE":"U","NORAD_CAT_ID":6989,"ELEMENT_SET_NO":999,"REV_AT_EPOCH":39180,"BSTAR":9.4605285e-5,"MEAN_MOTION_DOT":-1.0e-8,"MEAN_MOTION_DDOT":0}]
